{
  "type": "FeatureCollection",
  "features": [
    {
      "type": "Feature",
      "properties": {
        "norad_id": 57400,
        "name": "TIANMU-1 08",
        "group": "weather",
        "lat": 2.621952100788362,
        "lon": -136.95161613276366,
        "alt_km": 485.96923248264284,
        "timestamp": "2025-12-19T04:59:47.942674+00:00",
        "meta_object_name": "TIANMU-1 08",
        "meta_object_id": "2023-101B",
        "meta_epoch": "2025-12-18T23:30:34.284672",
        "meta_mean_motion": 15.28140521,
        "meta_eccentricity": 0.00073232,
        "meta_inclination": 97.2861,
        "meta_ra_of_asc_node": 42.4891,
        "meta_arg_of_pericenter": 66.4011,
        "meta_mean_anomaly": 293.7997,
        "meta_ephemeris_type": 0,
        "meta_classification_type": "U",
        "meta_norad_cat_id": 57400,
        "meta_element_set_no": 999,
        "meta_rev_at_epoch": 13410,
        "meta_bstar": 0.00021136682,
        "meta_mean_motion_dot": 5.729e-05,
        "meta_mean_motion_ddot": 0,
        "tle_line1": "1 57400U 23101B   25352.97956348  .00005729  00000+0  21137-3 0  9990",
        "tle_line2": "2 57400  97.2861  42.4891 0007323  66.4011 293.7997 15.28140521134106"
      },
      "geometry": {
        "type": "Point",
        "coordinates": [
          -136.95161613276366,
          2.621952100788362
        ]
      }
    },
    {
      "type": "Feature",
      "properties": {
        "norad_id": 57401,
        "name": "TIANMU-1 09",
        "group": "weather",
        "lat": -69.29056289875808,
        "lon": -157.5459522247392,
        "alt_km": 493.08153879643396,
        "timestamp": "2025-12-19T04:59:47.942684+00:00",
        "meta_object_name": "TIANMU-1 09",
        "meta_object_id": "2023-101C",
        "meta_epoch": "2025-12-18T23:11:21.617952",
        "meta_mean_motion": 15.2817292,
        "meta_eccentricity": 0.00065991,
        "meta_inclination": 97.2817,
        "meta_ra_of_asc_node": 41.9863,
        "meta_arg_of_pericenter": 67.002,
        "meta_mean_anomaly": 293.1915,
        "meta_ephemeris_type": 0,
        "meta_classification_type": "U",
        "meta_norad_cat_id": 57401,
        "meta_element_set_no": 999,
        "meta_rev_at_epoch": 13410,
        "meta_bstar": 0.00022441362,
        "meta_mean_motion_dot": 6.093e-05,
        "meta_mean_motion_ddot": 0,
        "tle_line1": "1 57401U 23101C   25352.96622243  .00006093  00000+0  22441-3 0  9998",
        "tle_line2": "2 57401  97.2817  41.9863 0006599  67.0020 293.1915 15.28172920134104"
      },
      "geometry": {
        "type": "Point",
        "coordinates": [
          -157.5459522247392,
          -69.29056289875808
        ]
      }
    },
    {
      "type": "Feature",
      "properties": {
        "norad_id": 57402,
        "name": "TIANMU-1 10",
        "group": "weather",
        "lat": 61.3269692515231,
        "lon": 29.5421026227649,
        "alt_km": 469.6750479335442,
        "timestamp": "2025-12-19T04:59:47.942697+00:00",
        "meta_object_name": "TIANMU-1 10",
        "meta_object_id": "2023-101D",
        "meta_epoch": "2025-12-18T22:26:23.019360",
        "meta_mean_motion": 15.2816395,
        "meta_eccentricity": 0.00083007,
        "meta_inclination": 97.2897,
        "meta_ra_of_asc_node": 42.812,
        "meta_arg_of_pericenter": 65.6221,
        "meta_mean_anomaly": 294.5884,
        "meta_ephemeris_type": 0,
        "meta_classification_type": "U",
        "meta_norad_cat_id": 57402,
        "meta_element_set_no": 999,
        "meta_rev_at_epoch": 13409,
        "meta_bstar": 0.00022027239,
        "meta_mean_motion_dot": 5.979e-05,
        "meta_mean_motion_ddot": 0,
        "tle_line1": "1 57402U 23101D   25352.93498865  .00005979  00000+0  22027-3 0  9999",
        "tle_line2": "2 57402  97.2897  42.8120 0008300  65.6221 294.5884 15.28163950134099"
      },
      "geometry": {
        "type": "Point",
        "coordinates": [
          29.5421026227649,
          61.3269692515231
        ]
      }
    },
    {
      "type": "Feature",
      "properties": {
        "norad_id": 57490,
        "name": "FENGYUN 3F",
        "group": "weather",
        "lat": -33.74094202021198,
        "lon": 67.27243148778727,
        "alt_km": 832.2653106874268,
        "timestamp": "2025-12-19T04:59:47.942707+00:00",
        "meta_object_name": "FENGYUN 3F",
        "meta_object_id": "2023-111A",
        "meta_epoch": "2025-12-18T22:23:32.904672",
        "meta_mean_motion": 14.19895119,
        "meta_eccentricity": 7.283e-05,
        "meta_inclination": 98.7076,
        "meta_ra_of_asc_node": 61.1263,
        "meta_arg_of_pericenter": 111.5028,
        "meta_mean_anomaly": 248.6226,
        "meta_ephemeris_type": 0,
        "meta_classification_type": "U",
        "meta_norad_cat_id": 57490,
        "meta_element_set_no": 999,
        "meta_rev_at_epoch": 12328,
        "meta_bstar": 5.27009e-05,
        "meta_mean_motion_dot": 6.8e-07,
        "meta_mean_motion_ddot": 0,
        "tle_line1": "1 57490U 23111A   25352.93301973  .00000068  00000+0  52701-4 0  9997",
        "tle_line2": "2 57490  98.7076  61.1263 0000728 111.5028 248.6226 14.19895119123282"
      },
      "geometry": {
        "type": "Point",
        "coordinates": [
          67.27243148778727,
          -33.74094202021198
        ]
      }
    },
    {
      "type": "Feature",
      "properties": {
        "norad_id": 58584,
        "name": "ARKTIKA-M 2",
        "group": "weather",
        "lat": 41.05059601631735,
        "lon": -31.924339734306397,
        "alt_km": 21126.264796259493,
        "timestamp": "2025-12-19T04:59:47.942719+00:00",
        "meta_object_name": "ARKTIKA-M 2",
        "meta_object_id": "2023-198A",
        "meta_epoch": "2025-12-17T19:31:00.124032",
        "meta_mean_motion": 2.0060326,
        "meta_eccentricity": 0.68652638,
        "meta_inclination": 63.225,
        "meta_ra_of_asc_node": 174.3391,
        "meta_arg_of_pericenter": 268.0846,
        "meta_mean_anomaly": 18.8392,
        "meta_ephemeris_type": 0,
        "meta_classification_type": "U",
        "meta_norad_cat_id": 58584,
        "meta_element_set_no": 999,
        "meta_rev_at_epoch": 1468,
        "meta_bstar": 0,
        "meta_mean_motion_dot": 2.02e-06,
        "meta_mean_motion_ddot": 0,
        "tle_line1": "1 58584U 23198A   25351.81319588  .00000202  00000+0  00000+0 0  9994",
        "tle_line2": "2 58584  63.2250 174.3391 6865263 268.0846  18.8392  2.00603260 14687"
      },
      "geometry": {
        "type": "Point",
        "coordinates": [
          -31.924339734306397,
          41.05059601631735
        ]
      }
    },
    {
      "type": "Feature",
      "properties": {
        "norad_id": 58645,
        "name": "TIANMU-1 11",
        "group": "weather",
        "lat": 19.406779776308312,
        "lon": -164.67201109038552,
        "alt_km": 494.84886882325554,
        "timestamp": "2025-12-19T04:59:47.942731+00:00",
        "meta_object_name": "TIANMU-1 11",
        "meta_object_id": "2023-205A",
        "meta_epoch": "2025-12-18T23:34:11.020800",
        "meta_mean_motion": 15.24673351,
        "meta_eccentricity": 0.00075889,
        "meta_inclination": 97.3597,
        "meta_ra_of_asc_node": 12.496,
        "meta_arg_of_pericenter": 284.0175,
        "meta_mean_anomaly": 76.0219,
        "meta_ephemeris_type": 0,
        "meta_classification_type": "U",
        "meta_norad_cat_id": 58645,
        "meta_element_set_no": 999,
        "meta_rev_at_epoch": 11004,
        "meta_bstar": 0.00019596909,
        "meta_mean_motion_dot": 4.774e-05,
        "meta_mean_motion_ddot": 0,
        "tle_line1": "1 58645U 23205A   25352.98207200  .00004774  00000+0  19597-3 0  9990",
        "tle_line2": "2 58645  97.3597  12.4960 0007588 284.0175  76.0219 15.24673351110045"
      },
      "geometry": {
        "type": "Point",
        "coordinates": [
          -164.67201109038552,
          19.406779776308312
        ]
      }
    },
    {
      "type": "Feature",
      "properties": {
        "norad_id": 58646,
        "name": "TIANMU-1 12",
        "group": "weather",
        "lat": 9.752580197533863,
        "lon": 11.248699239154188,
        "alt_km": 495.06260253780965,
        "timestamp": "2025-12-19T04:59:47.942741+00:00",
        "meta_object_name": "TIANMU-1 12",
        "meta_object_id": "2023-205B",
        "meta_epoch": "2025-12-19T00:13:40.487232",
        "meta_mean_motion": 15.24558099,
        "meta_eccentricity": 0.00057624,
        "meta_inclination": 97.3585,
        "meta_ra_of_asc_node": 12.3263,
        "meta_arg_of_pericenter": 262.7154,
        "meta_mean_anomaly": 97.3429,
        "meta_ephemeris_type": 0,
        "meta_classification_type": "U",
        "meta_norad_cat_id": 58646,
        "meta_element_set_no": 999,
        "meta_rev_at_epoch": 11003,
        "meta_bstar": 0.00021676516,
        "meta_mean_motion_dot": 5.269e-05,
        "meta_mean_motion_ddot": 0,
        "tle_line1": "1 58646U 23205B   25353.00949638  .00005269  00000+0  21677-3 0  9995",
        "tle_line2": "2 58646  97.3585  12.3263 0005762 262.7154  97.3429 15.24558099110039"
      },
      "geometry": {
        "type": "Point",
        "coordinates": [
          11.248699239154188,
          9.752580197533863
        ]
      }
    }
  ]
}